CIC_OEM_VERS = 2.0
CREATION_DATE = 2025-03-05T14:15:02.797274
ORIGINATOR = ISAE-SUPAERO


META_START
OBJECT_NAME = PLEIADES-NEO4
OBJECT_ID = PLEIADES-NEO4
CENTER_NAME = Earth
REF_FRAME = EME2000
TIME_SYSTEM = UTC
START_TIME = 2025-03-05T04:57:11.407
USEABLE_START_TIME = 2025-03-05T04:57:11.407
USEABLE_STOP_TIME = 2025-03-05T23:58:11.407
STOP_TIME = 2025-03-05T23:58:11.407
INTERPOLATION = lagrange
INTERPOLATION_DEGREE = 5
META_STOP



60739 17831.407 -5416.9939 4436.908 14.670652 0.6692977 0.79129734 7.4733774
60739 18251.407 -4599.0519 4310.54 3045.7342000000003 3.1569425 -1.3812117000000002 6.7117405
60739 18671.407 -2854.8642000000004 3316.0125000000003 5461.7225 5.0058228 -3.2728635 4.5961123
60739 19091.407 -536.3854699999999 1654.4935 6776.4585 5.845592300000001 -4.5035934 1.5577983
60739 19511.407 1889.886 -339.43927 6726.225200000001 5.5105277 -4.829026600000001 -1.7931829000000001
60739 19931.407 3936.1048 -2265.0156 5320.389 4.0662474 -4.1833155 -4.787273
60739 20351.407 5191.7717999999995 -3735.8064 2842.4512999999997 1.7978404000000001 -2.6912507000000003 -6.816930999999999
60739 20771.407 5400.7307 -4453.2330999999995 -208.93675000000002 -0.82905983 -0.6599333500000001 -7.4690596
60739 21191.407 4518.4213 -4271.025900000001 -3218.9517 -3.2936266 1.507348 -6.6170741
60739 21611.407 2727.1308 -3229.5423 -5579.2908 -5.0897233 3.3665748 -4.4305402
60739 22031.407 387.59805 -1538.8925 -6815.4589000000005 -5.8603873 4.5463307 -1.3557455
60739 22451.407 -2029.7645 460.69347999999997 -6679.8196 -5.4541822 4.8128774000000005 1.9909528
60739 22871.407 -4039.2286000000004 2367.5885 -5198.7785 -3.9504225 4.1119762 4.941796
60739 23291.407 -5237.409900000001 3799.0945 -2669.9487999999997 -1.645574 2.5791223 6.8983549
60739 23711.407 -5381.0662999999995 4465.4817 396.83108000000004 0.98864175 0.52805012 7.4592977000000005
60739 24131.407 -4436.0333 4228.5985 3384.1013 3.4252246 -1.6293021 6.521056300000001
60739 24551.407 -2599.6301000000003 3141.8916000000004 5688.818 5.1692662 -3.4562662 4.266293800000001
60739 24971.407 -240.63161 1423.6685 6847.375900000001 5.87198 -4.5857162 1.1568002
60739 25391.407 2166.6901000000003 -580.3405600000001 6627.8854 5.3956032 -4.794216400000001 -2.184446
60739 25811.407 4138.6493 -2467.6676 5073.6633 3.8334926 -4.039067 -5.0907931
60739 26231.407 5278.870599999999 -3859.1349 2496.919 1.4944030000000001 -2.4671854 -6.9733237
60739 26651.407 5354.4815 -4472.380700000001 -584.90494 -1.1430585000000002 -0.40060412 -7.448148000000001
60739 27071.407 4351.304099999999 -4184.4102 -3547.6558 -3.5530239000000003 1.7488958000000001 -6.419138
60739 27491.407 2471.7329 -3053.8049 -5794.8018 -5.2431626 3.5417738 -4.0992497000000006
60739 27911.407 95.74283100000001 -1309.938 -6875.439 -5.877796900000001 4.6203593000000005 -0.9592325899999999
60739 28331.407 -2299.454 696.65135 -6573.486 -5.3331781000000005 4.771776 2.3729722000000004
60739 28751.407 -4232.9137 2563.2456 -4948.5752 -3.7156230000000003 3.9644450000000004 5.233378
60739 29171.407 -5314.9938 3914.4138 -2324.9982000000005 -1.3441923999999998 2.3553967 7.0437884
60739 29591.407 -5324.0175 4475.109 768.1478900000001 1.3026348 0.26820763 7.431995700000001
60739 30011.407 -4257.8873 4132.1007 3705.7747000000004 3.6869097 -1.8734902 6.3156859999999995
60739 30431.407 -2332.6595 2955.3864 5893.7258 5.3239211 -3.6338952 3.9249387000000002
60739 30851.407 62.643556 1183.2568 6891.686 5.8868439 -4.6600439 0.7466386199999999
60739 31271.407 2445.3877 -826.90443 6499.879400000001 5.2653917 -4.748365799999999 -2.5804187
60739 31691.407 4336.059 -2670.6499 4796.9762 3.5831719 -3.8807697 -5.3900816
60739 32111.407 5352.9845000000005 -3976.2276 2125.1057 1.1756496 -2.2291699 -7.1145749
60739 32531.407 5289.9306 -4479.5876 -976.54148 -1.4706782 -0.12670067000000002 -7.4009729
60739 32951.407 4156.8181 -4076.6832000000004 -3879.3765000000003 -3.8200957 2.0003262 -6.195143600000001
60739 33371.407 2181.5944 -2848.4175 -5997.1467999999995 -5.4026481 3.7269926 -3.7358435
60739 33791.407 -231.91326999999998 -1047.256 -6903.316400000001 -5.8898341 4.6998928 -0.50662653
60739 34211.407 -2598.7606 965.47462 -6412.0255 -5.1853832 4.719335 2.8112206
60739 34631.407 -4440.652099999999 2782.9687999999996 -4623.1630000000005 -3.4322322 3.7854535 5.5652249000000005
60739 35051.407 -5384.1002 4037.4078 -1896.4889 -0.98273417 2.0850382 7.195086000000001
60739 35471.407 -5238.1325 4474.942900000001 1214.9660000000001 1.6652655 -0.036933031 7.3656256
60739 35891.407 -4033.5416 4008.1207999999997 4080.3430000000003 3.9707908000000005 -2.1462304 6.0459778
60739 36311.407 -2016.0164 2733.6707 6122.211700000001 5.469773 -3.8164834 3.5125016000000002
60739 36731.407 406.11206 910.6475 6932.5045 5.8673714 -4.7162056 0.28146664
60739 37151.407 2747.0185 -1094.779 6351.2137999999995 5.0900027 -4.6708561 -3.002299
60739 37571.407 4537.7817000000005 -2880.9258 4494.9255 3.2913625000000004 -3.6892131 -5.6871162
60739 37991.407 5417.8903 -4088.8903 1734.4556000000002 0.82651266 -1.9635562 -7.233162999999999
60739 38411.407 5207.9248 -4474.1061 -1375.4802 -1.8101519000000001 0.16128488 -7.3222228
60739 38831.407 3948.5076000000004 -3957.7411 -4207.5258 -4.0842913 2.2554931000000003 -5.9317696
60739 39251.407 1893.2557 -2643.6787999999997 -6189.3415 -5.5347172 3.8945555 -3.3433045000000003
60739 39671.407 -543.45428 -796.9612900000001 -6920.8538 -5.8696901 4.7485724000000005 -0.080013178
60739 40091.407 -2870.7016000000003 1210.3983 -6254.035 -5.0206678 4.645391 3.2031768
60739 40511.407 -4622.524 2975.2846 -4329.4359 -3.1512012 3.5985334 5.8364077
60739 40931.407 -5439.1956 4138.5082999999995 -1525.2928000000002 -0.6490766 1.828379 7.2900349
60739 41351.407 -5154.5369 4463.4728 1586.8013999999998 1.9820346 -0.30804642000000004 7.2744971
60739 41771.407 -3830.6248 3888.5221 4378.0556 4.2139829 -2.3826596 5.7888108
60739 42191.407 -1734.7989 2530.0373 6284.9361 5.5948781 -3.9751781000000004 3.1361056
60739 42611.407 710.25176 662.28486 6923.5515000000005 5.8488494 -4.7665676 -0.14718529000000002
60739 43031.407 3012.2962 -1338.7161 6165.1035 4.9253237 -4.5987384 -3.4029213
60739 43451.407 4706.9012 -3069.5605 4161.3574 3.0066535 -3.5030139 -5.9764916999999995
60739 43871.407 5451.3207999999995 -4180.7952000000005 1315.0831 0.47675717 -1.6972686000000001 -7.3439722000000005
60739 44291.407 5093.741599999999 -4446.8605 -1797.7619 -2.1497827000000003 0.45170493 -7.2235557
60739 44711.407 3707.0352000000003 -3814.4056 -4546.0323 -4.337684 2.5052212 -5.6438199000000004
60739 45131.407 1572.8321 -2413.0993 -6376.9412 -5.647676499999999 4.049875 -2.9290276
60739 45551.407 -877.18999 -527.20311 -6923.7895 -5.8197905 4.7769934 0.36858523000000004
60739 45971.407 -3151.2677000000003 1464.4847 -6078.0387 -4.8243194 4.545384200000001 3.5900761
60739 46391.407 -4792.818 3162.1746000000003 -4009.3309 -2.8584121000000002 3.4003667 6.0929775
60739 46811.407 -5470.518099999999 4223.8824 -1132.4424 -0.31312573 1.5685943 7.3715947
60739 47231.407 -5046.8373 4435.2207 1973.2329 2.2964847 -0.57996694 7.1622415
60739 47651.407 -3606.7094 3753.255 4680.238200000001 4.4432824 -2.6113769000000002 5.507289200000001
60739 48071.407 -1440.8677 2316.1093 6443.2543 5.6935705 -4.1147943 2.7446368000000003
60739 48491.407 1014.5641 413.48843 6908.112099999999 5.7990627 -4.7904232 -0.5690889
60739 48911.407 3265.9796 -1572.164 5980.8207 4.7381534 -4.50314 -3.7717922
60739 49331.407 4861.8760999999995 -3242.4965 3848.5156 2.7172836000000005 -3.3050054 -6.2169519
60739 49751.407 5474.3292 -4256.536599999999 937.83133 0.14735291 -1.4402896 -7.409510900000001
60739 50171.407 4981.2618 -4411.077200000001 -2163.3341 -2.4552296 0.71722797 -7.1035902
60739 50591.407 3482.2851 -3674.8731000000002 -4826.537200000001 -4.5599210999999995 2.7279469 -5.360838
60739 51011.407 1280.9636 -2197.5657 -6514.1629 -5.7422070000000005 4.1853899000000006 -2.539258
60739 51431.407 -1178.1967 -278.01534999999996 -6887.74 -5.767689000000001 4.7988209 0.7903357099999999
60739 51851.407 -3400.3983 1697.4321000000002 -5872.624 -4.633038 4.4470709 3.9609812000000004
60739 52271.407 -4938.150900000001 3331.1791000000003 -3672.5327 -2.5634722 3.1989465 6.3362733
60739 52691.407 -5480.4191 4293.342 -730.28696 0.025942308 1.3038741 7.4335302
60739 53111.407 -4916.473400000001 4388.8292 2359.5484 2.6104676 -0.85431042 7.0283585
60739 53531.407 -3361.4882000000002 3599.7322999999997 4973.2438 4.6650746 -2.8370701 5.2039998
60739 53951.407 -1130.3958 2086.5591 6583.9188 5.7771710999999994 -4.244839600000001 2.3354163
60739 54371.407 1327.7557 154.38525 6869.3459 5.728445 -4.7988376 -0.99929392
60739 54791.407 3519.3716 -1808.703 5772.4912 4.5292288 -4.3893921 -4.1351614
60739 55211.407 5003.384 -3408.0278 3512.3532999999998 2.415649 -3.0955537 -6.443650300000001
60739 55631.407 5479.0895 -4320.424 543.2021 -0.19002659 -1.1744379 -7.4542508
60739 56051.407 4848.9025 -4360.849200000001 -2536.18 -2.7595858 0.98545949 -6.9569924
60739 56471.407 3240.0593 -3521.1167 -5102.3962 -4.7698765000000005 2.9443208 -5.0536148999999995
60739 56891.407 978.13644 -1971.7108 -6637.8583 -5.8163148 4.306905800000001 -2.1337617
60739 57311.407 -1480.6394 -25.574996 -6834.4988 -5.6918084 4.8018011 1.2131904
60739 57731.407 -3641.5549 1925.6761999999999 -5652.9375 -4.4218948000000005 4.3307303 4.3172714999999995
60739 58151.407 -5069.0983 3489.107 -3330.1054 -2.2585407 2.9859185000000004 6.5540714
60739 58571.407 -5474.1205 4348.6825 -334.00266999999997 0.36330034 1.0367744 7.467677
60739 58991.407 -4773.827700000001 4330.119 2729.5737000000004 2.911888 -1.1215454999999999 6.871072600000001
60739 59411.407 -3105.8338 3433.753 5238.2525000000005 4.875559 -3.0544927 4.89053
60739 59831.407 -812.46983 1845.0972 6684.3668 5.857136400000001 -4.3721172 1.9224143
60739 60251.407 1646.1569 -115.42329 6786.5118 5.6502738 -4.803274099999999 -1.4406186
60739 60671.407 3772.7891 -2052.8143 5515.3842 4.3028856 -4.2641327 -4.5079087
